{
    "links": {
        "self": "http://www.neowsapp.com/rest/v1/neo/3620677?api_key=iIulBulltgU6a56xZRHN4H3l9WmuAYTsLGpBGhQ2"
    },
    "id": "3620677",
    "neo_reference_id": "3620677",
    "name": "(2012 XH112)",
    "designation": "2012 XH112",
    "nasa_jpl_url": "http://ssd.jpl.nasa.gov/sbdb.cgi?sstr=3620677",
    "absolute_magnitude_h": 26.9,
    "estimated_diameter": {
        "kilometers": {
            "estimated_diameter_min": 0.0110803882,
            "estimated_diameter_max": 0.0247765013
        },
        "meters": {
            "estimated_diameter_min": 11.0803882126,
            "estimated_diameter_max": 24.7765012606
        },
        "miles": {
            "estimated_diameter_min": 0.0068850319,
            "estimated_diameter_max": 0.0153953994
        },
        "feet": {
            "estimated_diameter_min": 36.3529808636,
            "estimated_diameter_max": 81.2877363957
        }
    },
    "is_potentially_hazardous_asteroid": false,
    "close_approach_data": [
        {
            "close_approach_date": "1935-11-24",
            "close_approach_date_full": "1935-Nov-24 07:51",
            "epoch_date_close_approach": -1076256540000,
            "relative_velocity": {
                "kilometers_per_second": "24.1194090922",
                "kilometers_per_hour": "86829.8727320431",
                "miles_per_hour": "53952.7061984187"
            },
            "miss_distance": {
                "astronomical": "0.3296502673",
                "lunar": "128.2339539797",
                "kilometers": "49314977.833010651",
                "miles": "30642906.2949869438"
            },
            "orbiting_body": "Earth"
        },
        {
            "close_approach_date": "2012-12-15",
            "close_approach_date_full": "2012-Dec-15 16:33",
            "epoch_date_close_approach": 1355589180000,
            "relative_velocity": {
                "kilometers_per_second": "14.4036395006",
                "kilometers_per_hour": "51853.102201994",
                "miles_per_hour": "32219.501198789"
            },
            "miss_distance": {
                "astronomical": "0.0044173783",
                "lunar": "1.7183601587",
                "kilometers": "660830.384664221",
                "miles": "410620.9602834098"
            },
            "orbiting_body": "Earth"
        },
        {
            "close_approach_date": "2012-12-15",
            "close_approach_date_full": "2012-Dec-15 20:07",
            "epoch_date_close_approach": 1355602020000,
            "relative_velocity": {
                "kilometers_per_second": "15.212032407",
                "kilometers_per_hour": "54763.3166651042",
                "miles_per_hour": "34027.7952911588"
            },
            "miss_distance": {
                "astronomical": "0.0063170166",
                "lunar": "2.4573194574",
                "kilometers": "945012.228114642",
                "miles": "587203.3695683796"
            },
            "orbiting_body": "Moon"
        }
    ],
    "orbital_data": {
        "orbit_id": "8",
        "orbit_determination_date": "2017-04-06 08:47:39",
        "first_observation_date": "2012-12-12",
        "last_observation_date": "2012-12-15",
        "data_arc_in_days": 3,
        "observations_used": 48,
        "orbit_uncertainty": "7",
        "minimum_orbit_intersection": ".000947532",
        "jupiter_tisserand_invariant": "3.483",
        "epoch_osculation": "2459000.5",
        "eccentricity": ".6144023925485912",
        "semi_major_axis": "2.094872010449591",
        "inclination": "4.003536425512998",
        "ascending_node_longitude": "83.39780606538916",
        "orbital_period": "1107.476879060072",
        "perihelion_distance": ".807777635146285",
        "perihelion_argument": "58.77754748764635",
        "aphelion_distance": "3.381966385752897",
        "perihelion_time": "2458531.396974734164",
        "mean_anomaly": "152.4881397425007",
        "mean_motion": ".3250632196543334",
        "equinox": "J2000",
        "orbit_class": {
            "orbit_class_type": "APO",
            "orbit_class_description": "Near-Earth asteroid orbits which cross the Earth’s orbit similar to that of 1862 Apollo",
            "orbit_class_range": "a (semi-major axis) > 1.0 AU; q (perihelion) < 1.017 AU"
        }
    },
    "is_sentry_object": false
}